[{"OBJECT_NAME":"FENGYUN 1C DEB","OBJECT_ID":"1999-025CVD","EPOCH":"2026-02-09T16:33:13.282848","MEAN_MOTION":14.3977982,"ECCENTRICITY":0.00846543,"INCLINATION":99.864,"RA_OF_ASC_NODE":13.4115,"ARG_OF_PERICENTER":329.6656,"MEAN_ANOMALY":209.0182,"EPHEMERIS_TYPE":0,"CLASSIFICATION_TYPE":"U","NORAD_CAT_ID":32207,"ELEMENT_SET_NO":999,"REV_AT_EPOCH":65155,"BSTAR":0.00054335896,"MEAN_MOTION_DOT":1.718e-5,"MEAN_MOTION_DDOT":0},{"OBJECT_NAME":"FENGYUN 1C DEB","OBJECT_ID":"1999-025CVF","EPOCH":"2026-03-01T07:27:26.501760","MEAN_MOTION":13.47437482,"ECCENTRICITY":0.03281428,"INCLINATION":99.426,"RA_OF_ASC_NODE":8.3023,"ARG_OF_PERICENTER":189.1291,"MEAN_ANOMALY":170.3782,"EPHEMERIS_TYPE":0,"CLASSIFICATION_TYPE":"U","NORAD_CAT_ID":32209,"ELEMENT_SET_NO":999,"REV_AT_EPOCH":91034,"BSTAR":0.0010719408,"MEAN_MOTION_DOT":8.69e-6,"MEAN_MOTION_DDOT":0},{"OBJECT_NAME":"FENGYUN 1C DEB","OBJECT_ID":"1999-025CVJ","EPOCH":"2026-02-27T18:29:54.917664","MEAN_MOTION":14.40615223,"ECCENTRICITY":0.01369416,"INCLINATION":99.5694,"RA_OF_ASC_NODE":169.5478,"ARG_OF_PERICENTER":214.5672,"MEAN_ANOMALY":303.6122,"EPHEMERIS_TYPE":0,"CLASSIFICATION_TYPE":"U","NORAD_CAT_ID":32212,"ELEMENT_SET_NO":999,"REV_AT_EPOCH":97170,"BSTAR":0.00063775225,"MEAN_MOTION_DOT":2.213e-5,"MEAN_MOTION_DDOT":0},{"OBJECT_NAME":"FENGYUN 1C DEB","OBJECT_ID":"1999-025CVL","EPOCH":"2026-03-02T12:59:08.002176","MEAN_MOTION":13.91375518,"ECCENTRICITY":0.0191796,"INCLINATION":99.0376,"RA_OF_ASC_NODE":90.0981,"ARG_OF_PERICENTER":182.1818,"MEAN_ANOMALY":333.077,"EPHEMERIS_TYPE":0,"CLASSIFICATION_TYPE":"U","NORAD_CAT_ID":32214,"ELEMENT_SET_NO":999,"REV_AT_EPOCH":63531,"BSTAR":0.0027753753,"MEAN_MOTION_DOT":4.029e-5,"MEAN_MOTION_DDOT":0},{"OBJECT_NAME":"FENGYUN 1C DEB","OBJECT_ID":"1999-025CVQ","EPOCH":"2026-03-02T00:51:08.355168","MEAN_MOTION":14.56338462,"ECCENTRICITY":0.00613735,"INCLINATION":98.8116,"RA_OF_ASC_NODE":264.3115,"ARG_OF_PERICENTER":185.3363,"MEAN_ANOMALY":327.7983,"EPHEMERIS_TYPE":0,"CLASSIFICATION_TYPE":"U","NORAD_CAT_ID":32218,"ELEMENT_SET_NO":999,"REV_AT_EPOCH":97386,"BSTAR":0.0012270223,"MEAN_MOTION_DOT":5.529e-5,"MEAN_MOTION_DDOT":0},{"OBJECT_NAME":"FENGYUN 1C DEB","OBJECT_ID":"1999-025CVT","EPOCH":"2026-03-01T15:53:18.817440","MEAN_MOTION":14.5896121,"ECCENTRICITY":0.01445367,"INCLINATION":98.5755,"RA_OF_ASC_NODE":218.1083,"ARG_OF_PERICENTER":262.703,"MEAN_ANOMALY":95.7721,"EPHEMERIS_TYPE":0,"CLASSIFICATION_TYPE":"U","NORAD_CAT_ID":32221,"ELEMENT_SET_NO":999,"REV_AT_EPOCH":98348,"BSTAR":0.00036082027,"MEAN_MOTION_DOT":1.897e-5,"MEAN_MOTION_DDOT":0},{"OBJECT_NAME":"FENGYUN 1C DEB","OBJECT_ID":"1999-025CVV","EPOCH":"2026-03-01T04:10:31.837440","MEAN_MOTION":14.21485817,"ECCENTRICITY":0.00482686,"INCLINATION":98.8305,"RA_OF_ASC_NODE":144.2667,"ARG_OF_PERICENTER":96.2521,"MEAN_ANOMALY":294.5749,"EPHEMERIS_TYPE":0,"CLASSIFICATION_TYPE":"U","NORAD_CAT_ID":32223,"ELEMENT_SET_NO":999,"REV_AT_EPOCH":65338,"BSTAR":0.0015272191,"MEAN_MOTION_DOT":3.338e-5,"MEAN_MOTION_DDOT":0},{"OBJECT_NAME":"FENGYUN 1C DEB","OBJECT_ID":"1999-025CVW","EPOCH":"2026-03-02T07:45:02.487744","MEAN_MOTION":14.34213879,"ECCENTRICITY":0.007537,"INCLINATION":98.9954,"RA_OF_ASC_NODE":20.462,"ARG_OF_PERICENTER":192.9059,"MEAN_ANOMALY":167.0197,"EPHEMERIS_TYPE":0,"CLASSIFICATION_TYPE":"U","NORAD_CAT_ID":32224,"ELEMENT_SET_NO":999,"REV_AT_EPOCH":96864,"BSTAR":0.00028682275,"MEAN_MOTION_DOT":7.83e-6,"MEAN_MOTION_DDOT":0},{"OBJECT_NAME":"FENGYUN 1C DEB","OBJECT_ID":"1999-025CVX","EPOCH":"2026-03-02T09:11:13.602048","MEAN_MOTION":14.13120117,"ECCENTRICITY":0.00712668,"INCLINATION":99.079,"RA_OF_ASC_NODE":116.2341,"ARG_OF_PERICENTER":343.606,"MEAN_ANOMALY":16.2807,"EPHEMERIS_TYPE":0,"CLASSIFICATION_TYPE":"U","NORAD_CAT_ID":32225,"ELEMENT_SET_NO":999,"REV_AT_EPOCH":69241,"BSTAR":0.0002196225,"MEAN_MOTION_DOT":3.74e-6,"MEAN_MOTION_DDOT":0},{"OBJECT_NAME":"FENGYUN 1C DEB","OBJECT_ID":"1999-025CWC","EPOCH":"2026-03-01T09:11:07.702656","MEAN_MOTION":14.58477656,"ECCENTRICITY":0.00512402,"INCLINATION":98.8699,"RA_OF_ASC_NODE":220.0854,"ARG_OF_PERICENTER":208.2621,"MEAN_ANOMALY":182.1149,"EPHEMERIS_TYPE":0,"CLASSIFICATION_TYPE":"U","NORAD_CAT_ID":32230,"ELEMENT_SET_NO":999,"REV_AT_EPOCH":61815,"BSTAR":0.0040843298,"MEAN_MOTION_DOT":0.00019303,"MEAN_MOTION_DDOT":0},{"OBJECT_NAME":"FENGYUN 1C DEB","OBJECT_ID":"1999-025CWG","EPOCH":"2026-03-02T12:43:20.647776","MEAN_MOTION":13.944735,"ECCENTRICITY":0.01363864,"INCLINATION":98.5287,"RA_OF_ASC_NODE":270.3445,"ARG_OF_PERICENTER":114.3177,"MEAN_ANOMALY":247.2297,"EPHEMERIS_TYPE":0,"CLASSIFICATION_TYPE":"U","NORAD_CAT_ID":32234,"ELEMENT_SET_NO":999,"REV_AT_EPOCH":94321,"BSTAR":0.0012173769,"MEAN_MOTION_DOT":1.716e-5,"MEAN_MOTION_DDOT":0},{"OBJECT_NAME":"FENGYUN 1C DEB","OBJECT_ID":"1999-025CWP","EPOCH":"2026-02-24T07:29:49.803936","MEAN_MOTION":14.29369621,"ECCENTRICITY":0.01426757,"INCLINATION":99.0681,"RA_OF_ASC_NODE":92.7579,"ARG_OF_PERICENTER":11.4673,"MEAN_ANOMALY":348.9702,"EPHEMERIS_TYPE":0,"CLASSIFICATION_TYPE":"U","NORAD_CAT_ID":32241,"ELEMENT_SET_NO":999,"REV_AT_EPOCH":94874,"BSTAR":0.0012215528,"MEAN_MOTION_DOT":3.426e-5,"MEAN_MOTION_DDOT":0},{"OBJECT_NAME":"FENGYUN 1C DEB","OBJECT_ID":"1999-025CWR","EPOCH":"2026-03-02T06:48:21.202272","MEAN_MOTION":14.05368127,"ECCENTRICITY":0.02657194,"INCLINATION":98.2604,"RA_OF_ASC_NODE":83.9671,"ARG_OF_PERICENTER":256.4535,"MEAN_ANOMALY":100.6908,"EPHEMERIS_TYPE":0,"CLASSIFICATION_TYPE":"U","NORAD_CAT_ID":32243,"ELEMENT_SET_NO":999,"REV_AT_EPOCH":94705,"BSTAR":0.0017234567,"MEAN_MOTION_DOT":3.796e-5,"MEAN_MOTION_DDOT":0},{"OBJECT_NAME":"FENGYUN 1C DEB","OBJECT_ID":"1999-025CWT","EPOCH":"2026-03-02T07:18:26.954496","MEAN_MOTION":14.78850407,"ECCENTRICITY":0.00945739,"INCLINATION":98.6539,"RA_OF_ASC_NODE":268.2403,"ARG_OF_PERICENTER":89.1848,"MEAN_ANOMALY":272.0196,"EPHEMERIS_TYPE":0,"CLASSIFICATION_TYPE":"U","NORAD_CAT_ID":32245,"ELEMENT_SET_NO":999,"REV_AT_EPOCH":67281,"BSTAR":0.0012084158,"MEAN_MOTION_DOT":9.538e-5,"MEAN_MOTION_DDOT":0},{"OBJECT_NAME":"FENGYUN 1C DEB","OBJECT_ID":"1999-025CWV","EPOCH":"2026-03-01T16:59:10.430304","MEAN_MOTION":14.51549897,"ECCENTRICITY":0.00506186,"INCLINATION":99.4064,"RA_OF_ASC_NODE":29.4848,"ARG_OF_PERICENTER":353.3421,"MEAN_ANOMALY":6.7092,"EPHEMERIS_TYPE":0,"CLASSIFICATION_TYPE":"U","NORAD_CAT_ID":32304,"ELEMENT_SET_NO":999,"REV_AT_EPOCH":57418,"BSTAR":0.0017460474,"MEAN_MOTION_DOT":7.053e-5,"MEAN_MOTION_DDOT":0},{"OBJECT_NAME":"FENGYUN 1C DEB","OBJECT_ID":"1999-025CWZ","EPOCH":"2026-02-28T13:43:02.298432","MEAN_MOTION":14.05945538,"ECCENTRICITY":0.01098822,"INCLINATION":97.7674,"RA_OF_ASC_NODE":106.4748,"ARG_OF_PERICENTER":194.0056,"MEAN_ANOMALY":165.8061,"EPHEMERIS_TYPE":0,"CLASSIFICATION_TYPE":"U","NORAD_CAT_ID":32308,"ELEMENT_SET_NO":999,"REV_AT_EPOCH":66505,"BSTAR":0.0012515634,"MEAN_MOTION_DOT":2.13e-5,"MEAN_MOTION_DDOT":0}]
