FENGYUN 1C DEB          
1 32207U 99025CVD 26040.68973707  .00001718  00000+0  54336-3 0  9998
2 32207  99.8640  13.4115 0084654 329.6656 209.0182 14.39779820651555
FENGYUN 1C DEB          
1 32209U 99025CVF 26060.31072340  .00000869  00000+0  10719-2 0  9997
2 32209  99.4260   8.3023 0328142 189.1291 170.3782 13.47437482910343
FENGYUN 1C DEB          
1 32212U 99025CVJ 26058.77077451  .00002213  00000+0  63775-3 0  9992
2 32212  99.5694 169.5478 0136941 214.5672 303.6122 14.40615223971704
FENGYUN 1C DEB          
1 32214U 99025CVL 26061.54106484  .00004029  00000+0  27754-2 0  9995
2 32214  99.0376  90.0981 0191796 182.1818 333.0770 13.91375518635311
FENGYUN 1C DEB          
1 32218U 99025CVQ 26061.03551337  .00005529  00000+0  12270-2 0  9997
2 32218  98.8116 264.3115 0061373 185.3363 327.7983 14.56338462973866
FENGYUN 1C DEB          
1 32221U 99025CVT 26060.66202335  .00001897  00000+0  36082-3 0  9992
2 32221  98.5755 218.1083 0144536 262.7030  95.7721 14.58961210983487
FENGYUN 1C DEB          
1 32223U 99025CVV 26060.17397960  .00003338  00000+0  15272-2 0  9998
2 32223  98.8305 144.2667 0048268  96.2521 294.5749 14.21485817653386
FENGYUN 1C DEB          
1 32224U 99025CVW 26061.32294546  .00000783  00000+0  28682-3 0  9994
2 32224  98.9954  20.4620 0075370 192.9059 167.0197 14.34213879968646
FENGYUN 1C DEB          
1 32225U 99025CVX 26061.38279632  .00000374  00000+0  21962-3 0  9990
2 32225  99.0790 116.2341 0071266 343.6060  16.2807 14.13120117692419
FENGYUN 1C DEB          
1 32230U 99025CWC 26060.38272804  .00019303  00000+0  40843-2 0  9999
2 32230  98.8699 220.0854 0051240 208.2621 182.1149 14.58477656618155
FENGYUN 1C DEB          
1 32234U 99025CWG 26061.53010009  .00001716  00000+0  12174-2 0  9993
2 32234  98.5287 270.3445 0136386 114.3177 247.2297 13.94473500943219
FENGYUN 1C DEB          
1 32241U 99025CWP 26055.31238199  .00003426  00000+0  12216-2 0  9999
2 32241  99.0681  92.7579 0142675  11.4673 348.9702 14.29369621948741
FENGYUN 1C DEB          
1 32243U 99025CWR 26061.28357873  .00003796  00000+0  17235-2 0  9991
2 32243  98.2604  83.9671 0265719 256.4535 100.6908 14.05368127947055
FENGYUN 1C DEB          
1 32245U 99025CWT 26061.30447864  .00009538  00000+0  12084-2 0  9993
2 32245  98.6539 268.2403 0094573  89.1848 272.0196 14.78850407672814
FENGYUN 1C DEB          
1 32304U 99025CWV 26060.70775961  .00007053  00000+0  17460-2 0  9997
2 32304  99.4064  29.4848 0050618 353.3421   6.7092 14.51549897574184
FENGYUN 1C DEB          
1 32308U 99025CWZ 26059.57155438  .00002130  00000+0  12516-2 0  9993
2 32308  97.7674 106.4748 0109882 194.0056 165.8061 14.05945538665054
